{"type": "FeatureCollection", "features": [ {"type": "Feature", "properties": {"norad_id": 60453, "name": "LEGION 4", "group": "resource", "lat": -23.86368189907965, "lon": -6.655512029534235, "alt_km": 514.5984828880037, "timestamp": "2025-12-16T21:38:56.827687+00:00", "meta": {"OBJECT_NAME": "LEGION 4", "OBJECT_ID": "2024-146B", "EPOCH": "2025-12-16T07:34:03.583200", "MEAN_MOTION": 15.1586461, "ECCENTRICITY": 0.00091426, "INCLINATION": 45.04, "RA_OF_ASC_NODE": 22.7258, "ARG_OF_PERICENTER": 329.4651, "MEAN_ANOMALY": 30.5695, "EPHEMERIS_TYPE": 0, "CLASSIFICATION_TYPE": "U", "NORAD_CAT_ID": 60453, "ELEMENT_SET_NO": 999, "REV_AT_EPOCH": 7312, "BSTAR": 0.00021902874, "MEAN_MOTION_DOT": 4.002e-05, "MEAN_MOTION_DDOT": 0}, "tle": {"line1": "1 60453U 24146B   25350.31531925  .00004002  00000+0  21903-3 0  9992", "line2": "2 60453  45.0400  22.7258 0009142 329.4651  30.5695 15.15864610 73123"}}, "geometry": {"type": "Point", "coordinates": [-6.655512029534235, -23.86368189907965]}}, {"type": "Feature", "properties": {"norad_id": 60989, "name": "SENTINEL-2C", "group": "resource", "lat": -11.110194123794752, "lon": -118.37200023491431, "alt_km": 793.3500001590382, "timestamp": "2025-12-16T21:38:56.827698+00:00", "meta": {"OBJECT_NAME": "SENTINEL-2C", "OBJECT_ID": "2024-157A", "EPOCH": "2025-12-16T03:58:32.164320", "MEAN_MOTION": 14.30818888, "ECCENTRICITY": 0.00012252, "INCLINATION": 98.5681, "RA_OF_ASC_NODE": 62.5989, "ARG_OF_PERICENTER": 97.1163, "MEAN_ANOMALY": 263.016, "EPHEMERIS_TYPE": 0, "CLASSIFICATION_TYPE": "U", "NORAD_CAT_ID": 60989, "ELEMENT_SET_NO": 999, "REV_AT_EPOCH": 6681, "BSTAR": 6.5505174e-05, "MEAN_MOTION_DOT": 1.28e-06, "MEAN_MOTION_DDOT": 0}, "tle": {"line1": "1 60989U 24157A   25350.16565005  .00000128  00000+0  65505-4 0  9999", "line2": "2 60989  98.5681  62.5989 0001225  97.1163 263.0160 14.30818888 66815"}}, "geometry": {"type": "Point", "coordinates": [-118.37200023491431, -11.110194123794752]}}, {"type": "Feature", "properties": {"norad_id": 61735, "name": "IONOSFERA-M 1", "group": "resource", "lat": -23.55589549966458, "lon": -135.43631556740397, "alt_km": 821.1627464842122, "timestamp": "2025-12-16T21:38:56.827708+00:00", "meta": {"OBJECT_NAME": "IONOSFERA-M 1", "OBJECT_ID": "2024-199A", "EPOCH": "2025-12-16T08:15:28.822176", "MEAN_MOTION": 14.22714802, "ECCENTRICITY": 7.931e-05, "INCLINATION": 98.7402, "RA_OF_ASC_NODE": 220.1646, "ARG_OF_PERICENTER": 17.0099, "MEAN_ANOMALY": 343.1106, "EPHEMERIS_TYPE": 0, "CLASSIFICATION_TYPE": "U", "NORAD_CAT_ID": 61735, "ELEMENT_SET_NO": 999, "REV_AT_EPOCH": 10170, "BSTAR": 4.3695768e-05, "MEAN_MOTION_DOT": 5.4e-07, "MEAN_MOTION_DDOT": 0}, "tle": {"line1": "1 61735U 24199A   25350.34408359  .00000054  00000+0  43696-4 0  9998", "line2": "2 61735  98.7402 220.1646 0000793  17.0099 343.1106 14.22714802101708"}}, "geometry": {"type": "Point", "coordinates": [-135.43631556740397, -23.55589549966458]}}, {"type": "Feature", "properties": {"norad_id": 61736, "name": "IONOSFERA-M 2", "group": "resource", "lat": 20.65963266410978, "lon": 43.95587547009844, "alt_km": 815.3600465434392, "timestamp": "2025-12-16T21:38:56.827718+00:00", "meta": {"OBJECT_NAME": "IONOSFERA-M 2", "OBJECT_ID": "2024-199B", "EPOCH": "2025-12-16T07:24:05.506848", "MEAN_MOTION": 14.22716956, "ECCENTRICITY": 0.00017254, "INCLINATION": 98.7401, "RA_OF_ASC_NODE": 220.0417, "ARG_OF_PERICENTER": 105.9097, "MEAN_ANOMALY": 254.2271, "EPHEMERIS_TYPE": 0, "CLASSIFICATION_TYPE": "U", "NORAD_CAT_ID": 61736, "ELEMENT_SET_NO": 999, "REV_AT_EPOCH": 10482, "BSTAR": 4.1631067e-05, "MEAN_MOTION_DOT": 4.9e-07, "MEAN_MOTION_DDOT": 0}, "tle": {"line1": "1 61736U 24199B   25350.30839707  .00000049  00000+0  41631-4 0  9991", "line2": "2 61736  98.7401 220.0417 0001725 105.9097 254.2271 14.22716956104827"}}, "geometry": {"type": "Point", "coordinates": [43.95587547009844, 20.65963266410978]}}, {"type": "Feature", "properties": {"norad_id": 63772, "name": "BIOMASS", "group": "resource", "lat": -57.47827417619705, "lon": -171.2921119063614, "alt_km": 676.6280726491696, "timestamp": "2025-12-16T21:38:56.827728+00:00", "meta": {"OBJECT_NAME": "BIOMASS", "OBJECT_ID": "2025-090A", "EPOCH": "2025-12-16T05:33:03.696192", "MEAN_MOTION": 14.675348, "ECCENTRICITY": 0.00011376, "INCLINATION": 98.0699, "RA_OF_ASC_NODE": 175.1901, "ARG_OF_PERICENTER": 81.518, "MEAN_ANOMALY": 278.6153, "EPHEMERIS_TYPE": 0, "CLASSIFICATION_TYPE": "U", "NORAD_CAT_ID": 63772, "ELEMENT_SET_NO": 999, "REV_AT_EPOCH": 3385, "BSTAR": 0.00024520741, "MEAN_MOTION_DOT": 1.343e-05, "MEAN_MOTION_DDOT": 0}, "tle": {"line1": "1 63772U 25090A   25350.23129278  .00001343  00000+0  24521-3 0  9997", "line2": "2 63772  98.0699 175.1901 0001137  81.5180 278.6153 14.67534800 33856"}}, "geometry": {"type": "Point", "coordinates": [-171.2921119063614, -57.47827417619705]}}, {"type": "Feature", "properties": {"norad_id": 64694, "name": "GOSAT-GW (IBUKI GW)", "group": "resource", "lat": 28.033437848606187, "lon": 110.65717962041809, "alt_km": 667.2997577986398, "timestamp": "2025-12-16T21:38:56.827738+00:00", "meta": {"OBJECT_NAME": "GOSAT-GW (IBUKI GW)", "OBJECT_ID": "2025-141A", "EPOCH": "2025-12-16T07:52:12.409824", "MEAN_MOTION": 14.67560206, "ECCENTRICITY": 0.00014452, "INCLINATION": 98.0429, "RA_OF_ASC_NODE": 285.7757, "ARG_OF_PERICENTER": 84.0407, "MEAN_ANOMALY": 276.0962, "EPHEMERIS_TYPE": 0, "CLASSIFICATION_TYPE": "U", "NORAD_CAT_ID": 64694, "ELEMENT_SET_NO": 999, "REV_AT_EPOCH": 2502, "BSTAR": 0.0001715114, "MEAN_MOTION_DOT": 9.25e-06, "MEAN_MOTION_DDOT": 0}, "tle": {"line1": "1 64694U 25141A   25350.32792141  .00000925  00000+0  17151-3 0  9999", "line2": "2 64694  98.0429 285.7757 0001445  84.0407 276.0962 14.67560206 25029"}}, "geometry": {"type": "Point", "coordinates": [110.65717962041809, 28.033437848606187]}}, {"type": "Feature", "properties": {"norad_id": 64876, "name": "IONOSFERA-M 3", "group": "resource", "lat": -4.170503325504208, "lon": 132.01973764872108, "alt_km": 824.9500430691633, "timestamp": "2025-12-16T21:38:56.827749+00:00", "meta": {"OBJECT_NAME": "IONOSFERA-M 3", "OBJECT_ID": "2025-155A", "EPOCH": "2025-12-16T08:57:36.867168", "MEAN_MOTION": 14.21441995, "ECCENTRICITY": 0.00021478, "INCLINATION": 98.5786, "RA_OF_ASC_NODE": 312.1367, "ARG_OF_PERICENTER": 54.2512, "MEAN_ANOMALY": 305.8865, "EPHEMERIS_TYPE": 0, "CLASSIFICATION_TYPE": "U", "NORAD_CAT_ID": 64876, "ELEMENT_SET_NO": 999, "REV_AT_EPOCH": 2043, "BSTAR": 5.3335395e-05, "MEAN_MOTION_DOT": 7.4e-07, "MEAN_MOTION_DDOT": 0}, "tle": {"line1": "1 64876U 25155A   25350.37334337  .00000074  00000+0  53335-4 0  9990", "line2": "2 64876  98.5786 312.1367 0002147  54.2512 305.8865 14.21441995 20436"}}, "geometry": {"type": "Point", "coordinates": [132.01973764872108, -4.170503325504208]}}, {"type": "Feature", "properties": {"norad_id": 64877, "name": "IONOSFERA-M 4", "group": "resource", "lat": 4.571954980506234, "lon": -48.12179364961831, "alt_km": 822.1277613530892, "timestamp": "2025-12-16T21:38:56.827759+00:00", "meta": {"OBJECT_NAME": "IONOSFERA-M 4", "OBJECT_ID": "2025-155B", "EPOCH": "2025-12-16T08:06:44.561664", "MEAN_MOTION": 14.21443118, "ECCENTRICITY": 0.00015231, "INCLINATION": 98.5786, "RA_OF_ASC_NODE": 312.0218, "ARG_OF_PERICENTER": 59.8324, "MEAN_ANOMALY": 300.3005, "EPHEMERIS_TYPE": 0, "CLASSIFICATION_TYPE": "U", "NORAD_CAT_ID": 64877, "ELEMENT_SET_NO": 999, "REV_AT_EPOCH": 2042, "BSTAR": 5.6848277e-05, "MEAN_MOTION_DOT": 8.2e-07, "MEAN_MOTION_DDOT": 0}, "tle": {"line1": "1 64877U 25155B   25350.33801576  .00000082  00000+0  56848-4 0  9992", "line2": "2 64877  98.5786 312.0218 0001523  59.8324 300.3005 14.21443118 20424"}}, "geometry": {"type": "Point", "coordinates": [-48.12179364961831, 4.571954980506234]}}, {"type": "Feature", "properties": {"norad_id": 64899, "name": "MICROCARB", "group": "resource", "lat": -16.69792982286135, "lon": -116.23792892760872, "alt_km": 654.1651152171489, "timestamp": "2025-12-16T21:38:56.827782+00:00", "meta": {"OBJECT_NAME": "MICROCARB", "OBJECT_ID": "2025-156A", "EPOCH": "2025-12-16T04:26:45.854016", "MEAN_MOTION": 14.72062609, "ECCENTRICITY": 0.00173371, "INCLINATION": 98.0023, "RA_OF_ASC_NODE": 65.4754, "ARG_OF_PERICENTER": 134.3028, "MEAN_ANOMALY": 225.9604, "EPHEMERIS_TYPE": 0, "CLASSIFICATION_TYPE": "U", "NORAD_CAT_ID": 64899, "ELEMENT_SET_NO": 999, "REV_AT_EPOCH": 2104, "BSTAR": 0.00011110009, "MEAN_MOTION_DOT": 6.5e-06, "MEAN_MOTION_DDOT": 0}, "tle": {"line1": "1 64899U 25156A   25350.18525294  .00000650  00000+0  11110-3 0  9993", "line2": "2 64899  98.0023  65.4754 0017337 134.3028 225.9604 14.72062609 21045"}}, "geometry": {"type": "Point", "coordinates": [-116.23792892760872, -16.69792982286135]}}, {"type": "Feature", "properties": {"norad_id": 64900, "name": "CO3D 3", "group": "resource", "lat": -57.611787765011776, "lon": -124.67000952661473, "alt_km": 513.1722474931958, "timestamp": "2025-12-16T21:38:56.827794+00:00", "meta": {"OBJECT_NAME": "CO3D 3", "OBJECT_ID": "2025-156B", "EPOCH": "2025-12-13T16:46:35.865408", "MEAN_MOTION": 15.2020033, "ECCENTRICITY": 0.00013843, "INCLINATION": 97.4344, "RA_OF_ASC_NODE": 64.0523, "ARG_OF_PERICENTER": 93.9049, "MEAN_ANOMALY": 266.2345, "EPHEMERIS_TYPE": 0, "CLASSIFICATION_TYPE": "U", "NORAD_CAT_ID": 64900, "ELEMENT_SET_NO": 999, "REV_AT_EPOCH": 2135, "BSTAR": 0.00015817929, "MEAN_MOTION_DOT": 3.358e-05, "MEAN_MOTION_DDOT": 0}, "tle": {"line1": "1 64900U 25156B   25347.69902622  .00003358  00000+0  15818-3 0  9999", "line2": "2 64900  97.4344  64.0523 0001384  93.9049 266.2345 15.20200330 21357"}}, "geometry": {"type": "Point", "coordinates": [-124.67000952661473, -57.611787765011776]}}]}